{
"type": "FeatureCollection",
"name": "villages_d",
"crs": { "type": "name", "properties": { "name": "urn:ogc:def:crs:OGC:1.3:CRS84" } },
"features": [
{ "type": "Feature", "properties": { "pc11_s_id": "19", "pc11_d_id": "327", "pc11_sd_id": "02159", "pc11_tv_id": "306389", "tv_name": "Dhajea Tea Garden", "mdds_og": 0, "P_Area": "Y" }, "geometry": { "type": "MultiPolygon", "coordinates": [ [ [ [ 88.215010147000044, 26.939228864500041 ], [ 88.216065295000121, 26.939287627000063 ], [ 88.216367877000025, 26.939307896000052 ], [ 88.216697007000079, 26.939404832000079 ], [ 88.217173500000072, 26.93905024100005 ], [ 88.21774251150012, 26.938475443000097 ], [ 88.218423413000011, 26.937645718000013 ], [ 88.219035131000084, 26.937049679000079 ], [ 88.219344947000053, 26.936861735999983 ], [ 88.219619025500037, 26.936739773000106 ], [ 88.219664987000073, 26.936367165 ], [ 88.219661534000053, 26.935996277333384 ], [ 88.219172146000062, 26.935418439000024 ], [ 88.219034239500061, 26.935104412000154 ], [ 88.218700419250126, 26.934345619000077 ], [ 88.219836819000079, 26.93158867500005 ], [ 88.220181913666693, 26.931173058333368 ], [ 88.220556847000054, 26.93133128900007 ], [ 88.221380463166781, 26.93173069433341 ], [ 88.222207099500039, 26.93174253900008 ], [ 88.22272298300004, 26.931461753000029 ], [ 88.223172157000079, 26.931034819000054 ], [ 88.223799617500092, 26.930199824000066 ], [ 88.224942354, 26.928930720000043 ], [ 88.224803539000064, 26.928601948000018 ], [ 88.224276014500063, 26.928036183500058 ], [ 88.224121864000054, 26.927638747000081 ], [ 88.224073053500064, 26.927271444000066 ], [ 88.224305146000034, 26.926851476000046 ], [ 88.224809034000074, 26.925994629000026 ], [ 88.225453326750156, 26.925283192750115 ], [ 88.225859750000055, 26.925136545000083 ], [ 88.22625984900003, 26.925090673000017 ], [ 88.227499467666775, 26.925167793666759 ], [ 88.227751935500081, 26.925564251000122 ], [ 88.227954668500061, 26.926087190500091 ], [ 88.228024584000124, 26.926512464000062 ], [ 88.228098967750029, 26.92681047225005 ], [ 88.22926910233339, 26.926816206000058 ], [ 88.230144729000031, 26.926083436000091 ], [ 88.230782451000039, 26.92523181400006 ], [ 88.231318276250079, 26.924065184750056 ], [ 88.231185177500109, 26.923376181500046 ], [ 88.231052633000019, 26.92312287 ], [ 88.230611842000044, 26.922638913000107 ], [ 88.230276374833466, 26.922195755166744 ], [ 88.230496614000018, 26.921024083000077 ], [ 88.230599639000104, 26.9206008845001 ], [ 88.23051191600004, 26.920275907000079 ], [ 88.230387202000031, 26.919898078000081 ], [ 88.230373054000012, 26.919614517000067 ], [ 88.230395701000106, 26.918864085750126 ], [ 88.230221177200079, 26.918320479800094 ], [ 88.2307734460001, 26.918274379000028 ], [ 88.23192026850009, 26.918289487500079 ], [ 88.231943741000023, 26.917736811000047 ], [ 88.231930626000093, 26.916880867000014 ], [ 88.231921610000057, 26.916272199000012 ], [ 88.231831286000045, 26.915704206 ], [ 88.231697183571512, 26.914918709428658 ], [ 88.231298835000047, 26.915203114000107 ], [ 88.23058737900007, 26.915469751000053 ], [ 88.230237912000106, 26.915549904000024 ], [ 88.229892033000084, 26.915538405500094 ], [ 88.228025782000046, 26.915708747000021 ], [ 88.227201312000034, 26.915747589000038 ], [ 88.225957436500096, 26.915576315000077 ], [ 88.225587912000037, 26.915452807000072 ], [ 88.224777565000039, 26.915110212000059 ], [ 88.22390865700001, 26.914631176000036 ], [ 88.223103807000115, 26.914259844000043 ], [ 88.222705201000082, 26.913915726 ], [ 88.222235146000088, 26.913600535000025 ], [ 88.22191436700011, 26.913400515 ], [ 88.221451425800069, 26.913190364600069 ], [ 88.220859004, 26.914212828000061 ], [ 88.220356158000058, 26.91528222000008 ], [ 88.219781681000129, 26.916402921000081 ], [ 88.219204264000055, 26.917601849000071 ], [ 88.219037157000074, 26.918202747000052 ], [ 88.218864464, 26.918780418000065 ], [ 88.218754252000025, 26.919046646000066 ], [ 88.218364298000012, 26.919612869000019 ], [ 88.21768002900005, 26.92057778400001 ], [ 88.217111240500017, 26.921486812000083 ], [ 88.216611598000028, 26.922865071000079 ], [ 88.216103721500147, 26.923839878000088 ], [ 88.215533775000026, 26.924519512000099 ], [ 88.214657505000076, 26.925303568000047 ], [ 88.21394008200005, 26.925860462000028 ], [ 88.213348301000025, 26.926182550000121 ], [ 88.212243764000036, 26.926617524000051 ], [ 88.211732658000102, 26.926842840000131 ], [ 88.21103827350008, 26.92745529300009 ], [ 88.210286323000076, 26.927792287000084 ], [ 88.209243393000023, 26.928262346000075 ], [ 88.20847628500006, 26.928972732000055 ], [ 88.207894234000037, 26.92957726200007 ], [ 88.207694318000023, 26.929983629000031 ], [ 88.207057181000053, 26.93077765 ], [ 88.206913465000071, 26.931044177000029 ], [ 88.206442195000065, 26.931969142000089 ], [ 88.206058831400085, 26.932912586300105 ], [ 88.206417428000066, 26.933160813000011 ], [ 88.207076235500082, 26.933441037500149 ], [ 88.208060788000054, 26.933434633500063 ], [ 88.208494240000121, 26.933663989500033 ], [ 88.208722369000085, 26.933975782000029 ], [ 88.208919389000044, 26.934475680000091 ], [ 88.209107384000049, 26.934979631000044 ], [ 88.209333025250089, 26.935312220500073 ], [ 88.209638230000095, 26.935433354000015 ], [ 88.21008380900011, 26.935495694000021 ], [ 88.210441606500083, 26.935492380000102 ], [ 88.210936439000037, 26.935298671000062 ], [ 88.211369692500142, 26.935282154000117 ], [ 88.211933024000075, 26.935582262 ], [ 88.212136307000108, 26.935849749500051 ], [ 88.212206605000063, 26.936200182000047 ], [ 88.21237117200009, 26.936571146000098 ], [ 88.212674936, 26.937113804000056 ], [ 88.212851782000072, 26.937618046000033 ], [ 88.212924302000033, 26.938113745000102 ], [ 88.212940076000095, 26.938862167000032 ], [ 88.21321897140011, 26.940803563400028 ], [ 88.213798881000088, 26.939731430000013 ], [ 88.214063718000062, 26.939418118000024 ], [ 88.214332996000053, 26.939331394000043 ], [ 88.215010147000044, 26.939228864500041 ] ] ] ] } },
{ "type": "Feature", "properties": { "pc11_s_id": "19", "pc11_d_id": "327", "pc11_sd_id": "02159", "pc11_tv_id": "306390", "tv_name": "Nagri Farm Tea Garden", "mdds_og": 0, "P_Area": "Y" }, "geometry": { "type": "MultiPolygon", "coordinates": [ [ [ [ 88.206442195000065, 26.931969142000089 ], [ 88.206913465000071, 26.931044177000029 ], [ 88.207057181000053, 26.93077765 ], [ 88.207694318000023, 26.929983629000031 ], [ 88.207894234000037, 26.92957726200007 ], [ 88.20847628500006, 26.928972732000055 ], [ 88.209243393000023, 26.928262346000075 ], [ 88.210286323000076, 26.927792287000084 ], [ 88.21103827350008, 26.92745529300009 ], [ 88.211732658000102, 26.926842840000131 ], [ 88.212243764000036, 26.926617524000051 ], [ 88.213348301000025, 26.926182550000121 ], [ 88.21394008200005, 26.925860462000028 ], [ 88.214657505000076, 26.925303568000047 ], [ 88.215533775000026, 26.924519512000099 ], [ 88.216103721500147, 26.923839878000088 ], [ 88.216611598000028, 26.922865071000079 ], [ 88.217111240500017, 26.921486812000083 ], [ 88.21768002900005, 26.92057778400001 ], [ 88.218364298000012, 26.919612869000019 ], [ 88.218754252000025, 26.919046646000066 ], [ 88.218864464, 26.918780418000065 ], [ 88.219037157000074, 26.918202747000052 ], [ 88.219204264000055, 26.917601849000071 ], [ 88.219781681000129, 26.916402921000081 ], [ 88.220356158000058, 26.91528222000008 ], [ 88.220859004, 26.914212828000061 ], [ 88.221451425800069, 26.913190364600069 ], [ 88.220926985000034, 26.912773872000017 ], [ 88.220417886000106, 26.912372313 ], [ 88.21984345, 26.912044334000051 ], [ 88.219146388000055, 26.911601139000062 ], [ 88.218627704000127, 26.911168447000055 ], [ 88.218410659000114, 26.910954967000066 ], [ 88.218145040000067, 26.91066105850004 ], [ 88.217960957000116, 26.909912957000092 ], [ 88.218328574000068, 26.909550356000111 ], [ 88.21878723800009, 26.909160748000026 ], [ 88.219310240000112, 26.908795728000023 ], [ 88.220001478000114, 26.908309509000027 ], [ 88.220501939000044, 26.907934735000016 ], [ 88.221089243000051, 26.907321628 ], [ 88.221421595000109, 26.906970422000075 ], [ 88.222012809, 26.906519355000057 ], [ 88.2227021100001, 26.906053403000051 ], [ 88.223490381000033, 26.905461730000034 ], [ 88.223983611000079, 26.905046673000065 ], [ 88.224626733333423, 26.904414821833388 ], [ 88.224684449000065, 26.904097611000054 ], [ 88.224349064000023, 26.903408039500064 ], [ 88.224133688000066, 26.903150102000083 ], [ 88.223732145000056, 26.902824711000072 ], [ 88.223388448000037, 26.902540408000085 ], [ 88.222675563000024, 26.901833596000046 ], [ 88.22210311500001, 26.902236019000036 ], [ 88.221791648000078, 26.902374031000086 ], [ 88.221317325666675, 26.902523801000044 ], [ 88.220981808000133, 26.902331877000062 ], [ 88.220624568000062, 26.902043041000056 ], [ 88.219905445250092, 26.901706883583397 ], [ 88.219525233000056, 26.90176244700011 ], [ 88.218602924500075, 26.902249630666763 ], [ 88.217589360500057, 26.902304911000051 ], [ 88.217090776000063, 26.90254129400007 ], [ 88.216446462000036, 26.90289922100002 ], [ 88.215926549000102, 26.903114964000018 ], [ 88.21512461366676, 26.903532060666734 ], [ 88.214931642000025, 26.903935531000055 ], [ 88.21473884200006, 26.904388418000046 ], [ 88.214366986785791, 26.905013999000115 ], [ 88.213935673000037, 26.905345294000082 ], [ 88.213574758000021, 26.905474398000017 ], [ 88.213116600000035, 26.905563790000041 ], [ 88.21184856100011, 26.905746729000079 ], [ 88.211369841000106, 26.905788514000072 ], [ 88.209937125250164, 26.905864189750094 ], [ 88.209667708000055, 26.905715071000035 ], [ 88.209416478500088, 26.905518003500028 ], [ 88.208863809500102, 26.905021473000023 ], [ 88.208509532250076, 26.904912522750045 ], [ 88.207993970000118, 26.904835150250083 ], [ 88.207592516000119, 26.904990121000093 ], [ 88.207086963000037, 26.905545127 ], [ 88.206861566500081, 26.905774080500077 ], [ 88.206608689000078, 26.905914688000031 ], [ 88.205921544000063, 26.906281535000097 ], [ 88.205154762000035, 26.906854840000015 ], [ 88.204972488666726, 26.907088972666781 ], [ 88.204849457000094, 26.90793693900002 ], [ 88.20475391700009, 26.908685164000111 ], [ 88.204685504000111, 26.909053458500075 ], [ 88.204565746000057, 26.909321604000102 ], [ 88.204175047000064, 26.909642398000088 ], [ 88.203691457000019, 26.90975919000007 ], [ 88.203160439000044, 26.909872934000067 ], [ 88.202812576000042, 26.909953378000061 ], [ 88.201468696000049, 26.910274606 ], [ 88.201185125000038, 26.910332455000074 ], [ 88.200834135000036, 26.910433362000074 ], [ 88.200402051000083, 26.910705747250073 ], [ 88.19967898375009, 26.910759081000112 ], [ 88.199388323000051, 26.910526991000093 ], [ 88.199121013000052, 26.910005461000019 ], [ 88.198915136000068, 26.909629085500097 ], [ 88.198586277500084, 26.909379204000071 ], [ 88.19827009400008, 26.909334572666687 ], [ 88.197596695000129, 26.909437804000035 ], [ 88.197149125000053, 26.909460050000099 ], [ 88.196927988000056, 26.910277098000023 ], [ 88.196749357000101, 26.910671490500015 ], [ 88.196634634000119, 26.911094391000056 ], [ 88.196695487000085, 26.911388475000052 ], [ 88.197029012000058, 26.911710361000129 ], [ 88.197461165500073, 26.91211511650009 ], [ 88.19759990600005, 26.912516259000018 ], [ 88.197557294000077, 26.912826866000049 ], [ 88.197505861000081, 26.913152572000087 ], [ 88.197364661000037, 26.913411409 ], [ 88.196873443000072, 26.913858757000074 ], [ 88.196699205000044, 26.914324617000073 ], [ 88.196606473, 26.914712725000033 ], [ 88.196624614000086, 26.915158517000059 ], [ 88.196785161000051, 26.915487104000068 ], [ 88.197136167000039, 26.916053692000052 ], [ 88.19742203800007, 26.916702852000029 ], [ 88.197457791500142, 26.917102478250076 ], [ 88.197200215000109, 26.917453871000085 ], [ 88.196727634000084, 26.91773529200001 ], [ 88.196438063000102, 26.918103111000068 ], [ 88.196334413000059, 26.918488062000034 ], [ 88.196320780000079, 26.918885599000063 ], [ 88.196411224500054, 26.919199798500081 ], [ 88.196821020000087, 26.919846576000083 ], [ 88.196929266000069, 26.920165153000063 ], [ 88.1969823230001, 26.921010300500047 ], [ 88.196524248000046, 26.921819840000104 ], [ 88.195962934500088, 26.922786331000047 ], [ 88.196001108000104, 26.923101154500117 ], [ 88.196464206000044, 26.923798523000041 ], [ 88.196770726000096, 26.924306519000062 ], [ 88.196820838000065, 26.924693414000011 ], [ 88.196884571000098, 26.925165452000076 ], [ 88.196974089000051, 26.925493914000075 ], [ 88.197302577000045, 26.925863223000079 ], [ 88.197825389000045, 26.926315689000035 ], [ 88.198157888000111, 26.926393134000048 ], [ 88.199120060000055, 26.926452136000044 ], [ 88.199827740500041, 26.926646279500076 ], [ 88.200211452000119, 26.926846173000051 ], [ 88.200455007000116, 26.927140556000072 ], [ 88.200953551000055, 26.927857505000063 ], [ 88.202122380000048, 26.930164107000042 ], [ 88.202789656, 26.93091191900001 ], [ 88.202918871857136, 26.931166565714303 ], [ 88.203258545000082, 26.931462398000082 ], [ 88.203655467333391, 26.931693631666697 ], [ 88.204154025, 26.931663761000046 ], [ 88.204748431500121, 26.931587715500104 ], [ 88.205208887500035, 26.931670233500093 ], [ 88.205435671, 26.931861824000091 ], [ 88.205578232000079, 26.93211252300005 ], [ 88.205758575500042, 26.93253535300013 ], [ 88.206058831400085, 26.932912586300105 ], [ 88.206442195000065, 26.931969142000089 ] ] ] ] } },
{ "type": "Feature", "properties": { "pc11_s_id": "19", "pc11_d_id": "327", "pc11_sd_id": "02161", "pc11_tv_id": "306439", "tv_name": "Rohini Tea Garden", "mdds_og": 0, "P_Area": "Y" }, "geometry": { "type": "MultiPolygon", "coordinates": [ [ [ [ 88.286142612333379, 26.869438036000147 ], [ 88.286555820000132, 26.869480074000073 ], [ 88.287108862166775, 26.869706105166745 ], [ 88.287851401000125, 26.869714294000179 ], [ 88.28828510150008, 26.869697396000113 ], [ 88.288560454, 26.869626347000096 ], [ 88.288896494000085, 26.869482596000104 ], [ 88.289342530500178, 26.869453767750183 ], [ 88.289811554500091, 26.869365373000086 ], [ 88.290120985000058, 26.869335742000121 ], [ 88.29053805300002, 26.869229664000049 ], [ 88.290954477000099, 26.869178984000119 ], [ 88.291778041000128, 26.869084916000062 ], [ 88.29216119250016, 26.868995427500074 ], [ 88.292525329000142, 26.868902463000065 ], [ 88.293011886000073, 26.868774500000047 ], [ 88.293434820000073, 26.86865837800012 ], [ 88.294119968000089, 26.868341306000087 ], [ 88.294573229000122, 26.868161266000111 ], [ 88.29523583700005, 26.867800055000156 ], [ 88.296216523000012, 26.867391420000097 ], [ 88.297378520000152, 26.866833116000176 ], [ 88.298558858800092, 26.866369866600092 ], [ 88.299015694500113, 26.866174810000064 ], [ 88.299427245500155, 26.865868390500069 ], [ 88.299585337000124, 26.865406439500127 ], [ 88.299783115000153, 26.864900923500134 ], [ 88.300344257000134, 26.864262411000016 ], [ 88.30058505750003, 26.863981185000107 ], [ 88.300831991500203, 26.863712377000159 ], [ 88.301175715000085, 26.863468628000152 ], [ 88.301659162333451, 26.863154127666821 ], [ 88.301953223000112, 26.862968698000088 ], [ 88.302477832000093, 26.86295893200008 ], [ 88.302769172000126, 26.86296252300011 ], [ 88.303106811000177, 26.862921087000057 ], [ 88.303536711000035, 26.862842116666762 ], [ 88.303908829200026, 26.862866679000085 ], [ 88.304039863000099, 26.862611602000118 ], [ 88.30428076800014, 26.86221921800016 ], [ 88.304762540000041, 26.861672708000061 ], [ 88.305097024000091, 26.861374889000022 ], [ 88.305460214000036, 26.861035708000113 ], [ 88.305746997000043, 26.86076814300009 ], [ 88.30609374500014, 26.860552895000044 ], [ 88.306548419000094, 26.86033709700013 ], [ 88.30697233700009, 26.860099286000082 ], [ 88.307259585500006, 26.859972645500129 ], [ 88.307565544000141, 26.859873394000044 ], [ 88.308140241000089, 26.859642108500136 ], [ 88.308474847000156, 26.85954523100007 ], [ 88.308958363000016, 26.859368397000093 ], [ 88.309503925500167, 26.859138079000132 ], [ 88.310019737000076, 26.858857005500102 ], [ 88.310409883000119, 26.858589943000077 ], [ 88.310647104000026, 26.8583186490001 ], [ 88.311203019000104, 26.857829874000071 ], [ 88.311456333000109, 26.857404828000075 ], [ 88.311806364500072, 26.85699651700013 ], [ 88.311265885000154, 26.85683941400001 ], [ 88.31048173100011, 26.856360086000052 ], [ 88.309971638500144, 26.855969458000061 ], [ 88.309543133000076, 26.855674515000082 ], [ 88.30905977600014, 26.855318136000083 ], [ 88.308640734000107, 26.85475381900002 ], [ 88.308094278000013, 26.854130448000046 ], [ 88.307730110000165, 26.853542642000082 ], [ 88.30723967100009, 26.85263460500018 ], [ 88.306429164000093, 26.851006641000129 ], [ 88.306145475000065, 26.850559320000155 ], [ 88.305593780000066, 26.84985971 ], [ 88.305328704000075, 26.849542842000073 ], [ 88.304491106000143, 26.848910535000069 ], [ 88.304044599000051, 26.848561876000087 ], [ 88.303094212000104, 26.848050051000104 ], [ 88.302288211000032, 26.847743065000106 ], [ 88.301938679000074, 26.847549230000144 ], [ 88.301671510333406, 26.847338309333434 ], [ 88.301728871000122, 26.847045469000118 ], [ 88.301911851000071, 26.846803561000176 ], [ 88.302543188000172, 26.845641131000097 ], [ 88.303114997000051, 26.844207025000099 ], [ 88.303334878000129, 26.843722413000147 ], [ 88.303745125000049, 26.842401211000077 ], [ 88.304175170000107, 26.841369368000056 ], [ 88.304456661000046, 26.840323309000102 ], [ 88.304799400000064, 26.839595337000087 ], [ 88.304971711000107, 26.838857588500108 ], [ 88.304967374000114, 26.838394478000115 ], [ 88.304917770000088, 26.838102285000097 ], [ 88.304802483500097, 26.837711216500114 ], [ 88.304787833000091, 26.837039725000199 ], [ 88.304752070000148, 26.835585638000058 ], [ 88.304755644000082, 26.834409058000052 ], [ 88.304914362000076, 26.833468839000151 ], [ 88.304950049600066, 26.832674585000071 ], [ 88.304883039000146, 26.831846060000085 ], [ 88.304652903000118, 26.831255128000041 ], [ 88.304520960000119, 26.830964795000089 ], [ 88.303573259000132, 26.829815936000156 ], [ 88.303217146000151, 26.829253839000099 ], [ 88.302766112500095, 26.82877162500008 ], [ 88.302483375000108, 26.828349051000021 ], [ 88.302273597000152, 26.827885395000116 ], [ 88.302038733000089, 26.827340483000061 ], [ 88.301743395000159, 26.82679612500014 ], [ 88.301452888000114, 26.826044960000072 ], [ 88.301183399000109, 26.825247771000104 ], [ 88.301130053000136, 26.824957153000039 ], [ 88.301012046500091, 26.82459262450012 ], [ 88.300819107000066, 26.82421686800016 ], [ 88.300644487000099, 26.823750470000117 ], [ 88.300494990000075, 26.823201318000155 ], [ 88.300202585000136, 26.822089904000034 ], [ 88.300229746000156, 26.821674238000103 ], [ 88.300281395000169, 26.821131157000021 ], [ 88.300395175000077, 26.820732654000089 ], [ 88.300331987000177, 26.820281508000065 ], [ 88.300318672000145, 26.819746456000114 ], [ 88.300502674000185, 26.819401080000137 ], [ 88.300686844000055, 26.819002070000163 ], [ 88.301186452000181, 26.818408770000101 ], [ 88.301684241000061, 26.817682478000048 ], [ 88.302686778000151, 26.816725918000127 ], [ 88.303769088000081, 26.815990060000171 ], [ 88.304394048000105, 26.815667016000088 ], [ 88.304725214000143, 26.81550363800007 ], [ 88.305319687000036, 26.815342234000038 ], [ 88.30579520300013, 26.815211041500152 ], [ 88.306111507000097, 26.815071156000169 ], [ 88.306433398000166, 26.814778903000057 ], [ 88.306766978000056, 26.814680767666864 ], [ 88.307138534500112, 26.814801312750113 ], [ 88.307553413000122, 26.814970279000082 ], [ 88.30787808466674, 26.814911058333401 ], [ 88.308410076000115, 26.814721115000072 ], [ 88.308798707000122, 26.814469152000097 ], [ 88.309115206000115, 26.814352168000099 ], [ 88.309869219000149, 26.814191184000013 ], [ 88.310338558000169, 26.814042816000171 ], [ 88.311058741000153, 26.813832074000143 ], [ 88.31160050400004, 26.81365445400019 ], [ 88.312062927000028, 26.813570637000094 ], [ 88.31266911600008, 26.813410410000071 ], [ 88.313417287000078, 26.813188708000023 ], [ 88.313974735000116, 26.813000248000062 ], [ 88.314540246000092, 26.812824683000013 ], [ 88.314930309875166, 26.812838533125149 ], [ 88.315280068000021, 26.813152520500093 ], [ 88.31559069800015, 26.813587431000062 ], [ 88.315824493500088, 26.813860950000134 ], [ 88.316085143000109, 26.814477784000101 ], [ 88.316206912000055, 26.81486493300007 ], [ 88.316331127000041, 26.815130758000127 ], [ 88.316488542000087, 26.815496275000083 ], [ 88.316725725000182, 26.816198127000067 ], [ 88.316892743000054, 26.816779697000047 ], [ 88.317138267000118, 26.817617806000026 ], [ 88.317279928000119, 26.817956982000023 ], [ 88.317471377200079, 26.818248986800008 ], [ 88.3179754250001, 26.818550839000043 ], [ 88.31850547500008, 26.818894692000161 ], [ 88.318849706000051, 26.819125350000061 ], [ 88.319216270000098, 26.819337661500086 ], [ 88.31958898000012, 26.819400595000097 ], [ 88.319902394000025, 26.819352343000102 ], [ 88.320308914500131, 26.819181715000106 ], [ 88.320681212000167, 26.818985736000055 ], [ 88.321056819000063, 26.818916279000081 ], [ 88.321496506000116, 26.818943135000172 ], [ 88.322076990000014, 26.819035975000215 ], [ 88.32319144900012, 26.81914599200017 ], [ 88.324040945000064, 26.81914276400008 ], [ 88.324407605000019, 26.819082429000151 ], [ 88.324808982250119, 26.818896471500086 ], [ 88.324900427000117, 26.818541348000057 ], [ 88.32496885000009, 26.817829069 ], [ 88.325006150000164, 26.817536567000055 ], [ 88.325155307000159, 26.817293540000019 ], [ 88.325456545000208, 26.817223097000142 ], [ 88.325797665000195, 26.817153356000144 ], [ 88.326113530000129, 26.817097648000153 ], [ 88.326572543, 26.817045317500131 ], [ 88.327330981000145, 26.81719598900003 ], [ 88.327626808000019, 26.817317075000101 ], [ 88.327923317000213, 26.817417428000144 ], [ 88.328248750000142, 26.817507690000152 ], [ 88.328609109000112, 26.817485261000073 ], [ 88.328865897000213, 26.817232868000151 ], [ 88.329035787000066, 26.816961423500118 ], [ 88.329131504500126, 26.816527818000168 ], [ 88.329300460000113, 26.815894480000079 ], [ 88.329400502499993, 26.815555019500103 ], [ 88.329666911000146, 26.8149382890001 ], [ 88.330006750000194, 26.814226929000039 ], [ 88.330566370000142, 26.813422543000097 ], [ 88.331088921000031, 26.81264122100011 ], [ 88.331203495500148, 26.812300776000097 ], [ 88.331130660000028, 26.811965350000055 ], [ 88.330946791, 26.811572811000172 ], [ 88.330561606500055, 26.810440816000124 ], [ 88.33063485300012, 26.810116764000046 ], [ 88.330977359500082, 26.80993092850008 ], [ 88.331479702000124, 26.809737891000051 ], [ 88.331884409000125, 26.809680575000105 ], [ 88.332332751500232, 26.809567825500146 ], [ 88.332637094000148, 26.809370994000158 ], [ 88.332837003000165, 26.809110587000195 ], [ 88.333151973000028, 26.808330783000155 ], [ 88.333213971000092, 26.807944281500106 ], [ 88.333108609000078, 26.807457873000139 ], [ 88.332760514000057, 26.806723290000111 ], [ 88.332505987000133, 26.806478646000119 ], [ 88.332413523000028, 26.806197754000149 ], [ 88.332462904666784, 26.805813351500184 ], [ 88.332662384000102, 26.805322219000093 ], [ 88.332778645000047, 26.804513308000043 ], [ 88.332674838000159, 26.80353334000014 ], [ 88.332536090000218, 26.802899913000044 ], [ 88.33247825100014, 26.802045884000169 ], [ 88.332387704000197, 26.801689639500136 ], [ 88.332628959000175, 26.801397665916781 ], [ 88.332991744333427, 26.801169202666774 ], [ 88.332823809250243, 26.800746242250128 ], [ 88.332904208000045, 26.800349174500159 ], [ 88.333288588000045, 26.799842825000052 ], [ 88.334417460000097, 26.798101899000159 ], [ 88.334693258000101, 26.797997045000098 ], [ 88.33507608799998, 26.797914189000171 ], [ 88.335363242000113, 26.797886880000132 ], [ 88.335804378300125, 26.797820826200102 ], [ 88.33606354400014, 26.797470719333404 ], [ 88.336336747500141, 26.79691246750011 ], [ 88.336431029000082, 26.79650485600018 ], [ 88.3365415922501, 26.795594150750123 ], [ 88.336576177000197, 26.795073715500028 ], [ 88.33699230200007, 26.79483348400009 ], [ 88.337393483000142, 26.79482299200011 ], [ 88.337712964000104, 26.794801771500087 ], [ 88.337953572500069, 26.794609297000104 ], [ 88.338082085000096, 26.793964558000138 ], [ 88.338172442750079, 26.793643377250142 ], [ 88.338622567000044, 26.793574667000119 ], [ 88.339037587000107, 26.79371839900011 ], [ 88.339288837500064, 26.79394281250007 ], [ 88.339554632000073, 26.794042749000123 ], [ 88.340047306500111, 26.794017992000118 ], [ 88.340443053000129, 26.793747964500113 ], [ 88.340513765000111, 26.792776578000076 ], [ 88.340554734000136, 26.792214028000071 ], [ 88.340651207500159, 26.79176672525012 ], [ 88.340518152500081, 26.791217295500157 ], [ 88.34039009940004, 26.790765364400059 ], [ 88.339970090000165, 26.791083775000079 ], [ 88.339457413500156, 26.791390442000051 ], [ 88.339108135000075, 26.791577796666765 ], [ 88.338735029500072, 26.791644482000109 ], [ 88.338320561000103, 26.791727366000128 ], [ 88.337836958000153, 26.791911641000187 ], [ 88.337483406500155, 26.791996500000103 ], [ 88.336286352000187, 26.792024511500156 ], [ 88.335851347000172, 26.791964233000098 ], [ 88.335485790500073, 26.79186037900012 ], [ 88.335100432000033, 26.791644827000137 ], [ 88.334797715000121, 26.791476123000034 ], [ 88.334494001000039, 26.791296531000096 ], [ 88.33400539400003, 26.790916394000085 ], [ 88.333627672000119, 26.790530138000189 ], [ 88.333387722000083, 26.790337544000064 ], [ 88.333014076000069, 26.790112451 ], [ 88.332677061000169, 26.789951601000016 ], [ 88.332268410000012, 26.789806657000103 ], [ 88.331693878000081, 26.789617387000074 ], [ 88.331211501500007, 26.789484400000084 ], [ 88.330741578000072, 26.789376139666764 ], [ 88.329596857000041, 26.789331149000194 ], [ 88.328564181666792, 26.78937783300006 ], [ 88.328312434000082, 26.789515654000095 ], [ 88.327851247000027, 26.789841893200105 ], [ 88.327543878000171, 26.789878726000115 ], [ 88.327223031000088, 26.789887178000104 ], [ 88.326844778500103, 26.79004244583345 ], [ 88.326448437285762, 26.79020239028571 ], [ 88.326478610500004, 26.790660778500119 ], [ 88.326483245000077, 26.791046745833413 ], [ 88.326209936000026, 26.791335554000039 ], [ 88.325900680000103, 26.7915005310001 ], [ 88.325391566000079, 26.791794176500105 ], [ 88.325136332000099, 26.792052668000043 ], [ 88.324762375000063, 26.792397101000031 ], [ 88.324340513000152, 26.792877038750195 ], [ 88.323920654000148, 26.793260614000157 ], [ 88.323717352000102, 26.793478986000107 ], [ 88.323422873250195, 26.793891954000081 ], [ 88.322961825000121, 26.79432670100017 ], [ 88.322726399, 26.794522450000112 ], [ 88.322467916000022, 26.794860894000049 ], [ 88.322066854000056, 26.795324920000073 ], [ 88.321523228000018, 26.795790737000157 ], [ 88.320942728000134, 26.796347247000018 ], [ 88.320566406000168, 26.796702103000069 ], [ 88.320289060000135, 26.796998223000056 ], [ 88.320091048000094, 26.79727725300005 ], [ 88.319741787000154, 26.797726229000073 ], [ 88.319255427000058, 26.798326339000077 ], [ 88.318823320000092, 26.79896794000005 ], [ 88.318699287000044, 26.79925373300016 ], [ 88.318496261000121, 26.799908368000057 ], [ 88.318431698000026, 26.800313794000029 ], [ 88.318362436000157, 26.801431440000133 ], [ 88.318459202000071, 26.803122659000177 ], [ 88.318465338000138, 26.803707914000018 ], [ 88.31837210816677, 26.804039505166809 ], [ 88.31833708750014, 26.804369571500096 ], [ 88.318192499000119, 26.804730770000095 ], [ 88.317966363000068, 26.805045368000012 ], [ 88.317679685000058, 26.805462814000091 ], [ 88.31705952100009, 26.806294537000074 ], [ 88.316792264000085, 26.80667497500011 ], [ 88.316368991000061, 26.807221173000183 ], [ 88.315937928000096, 26.807626857000177 ], [ 88.315618491333382, 26.808075700166722 ], [ 88.315123693000047, 26.808497621000104 ], [ 88.314817152000089, 26.808867101000121 ], [ 88.314391122000103, 26.809291898 ], [ 88.313971679750097, 26.809639260750128 ], [ 88.313410590500013, 26.809932860000107 ], [ 88.31282642900014, 26.810182262000136 ], [ 88.312303795000147, 26.810325590000094 ], [ 88.311960762000098, 26.8104593035001 ], [ 88.311596389500096, 26.810590208500095 ], [ 88.31129565300013, 26.810654753000062 ], [ 88.310552875000141, 26.810676742000105 ], [ 88.309888999, 26.810611881500112 ], [ 88.309590342000078, 26.810417863666757 ], [ 88.309347296000126, 26.810045222000166 ], [ 88.308987856000144, 26.809568475000066 ], [ 88.308565541000107, 26.809151570500077 ], [ 88.308307990000117, 26.808905185000075 ], [ 88.308093475500087, 26.808654025000077 ], [ 88.307636251000048, 26.808222758000188 ], [ 88.307282301000072, 26.807837901000052 ], [ 88.3069854230001, 26.807562803000028 ], [ 88.306750494000113, 26.807320049000104 ], [ 88.306439941000093, 26.806925840000172 ], [ 88.306028865000101, 26.806538110000066 ], [ 88.305511538000104, 26.806070488000099 ], [ 88.305317030000168, 26.805805492000022 ], [ 88.305135848000106, 26.805545363000082 ], [ 88.305000917000129, 26.805171756000167 ], [ 88.304770130000136, 26.804435185000063 ], [ 88.304551737000097, 26.803836511500133 ], [ 88.304411378000111, 26.803530360000071 ], [ 88.303801225166794, 26.803054235416756 ], [ 88.303341521500101, 26.803179965750189 ], [ 88.302984072000058, 26.80334244250011 ], [ 88.302692980000046, 26.803400533000076 ], [ 88.301856628000124, 26.803438007000157 ], [ 88.301512912500058, 26.803383079000142 ], [ 88.301164289500079, 26.803317727500108 ], [ 88.300540828250163, 26.803229105750169 ], [ 88.300118294500038, 26.803090769500159 ], [ 88.29962792900001, 26.803081203000122 ], [ 88.298993798250152, 26.803151338000152 ], [ 88.298531256000132, 26.803341943000113 ], [ 88.298196927500044, 26.803663859000192 ], [ 88.29755557600005, 26.804432441000191 ], [ 88.296961437000093, 26.804827671000119 ], [ 88.296390599500072, 26.804950574500118 ], [ 88.295903598500104, 26.804895022000096 ], [ 88.295319832500027, 26.804758587500132 ], [ 88.294462022000147, 26.80449704100003 ], [ 88.294196898860619, 26.804377824261238 ], [ 88.293814153000099, 26.804456537500098 ], [ 88.293468927500101, 26.804662380000121 ], [ 88.293159217750159, 26.805051182250072 ], [ 88.293028550250142, 26.805523013750165 ], [ 88.292656127000029, 26.805894272000085 ], [ 88.292365162000124, 26.806036003500044 ], [ 88.291894552000088, 26.80610245800008 ], [ 88.291362116500125, 26.806181979000087 ], [ 88.290793632000117, 26.806274519000105 ], [ 88.290300289000157, 26.80622745100003 ], [ 88.289984943000093, 26.806169669000134 ], [ 88.289694727000054, 26.805937498000109 ], [ 88.289492480000106, 26.805726311000132 ], [ 88.289239759000068, 26.805453589000127 ], [ 88.28854406300006, 26.804613086000128 ], [ 88.287894686000158, 26.80375623900002 ], [ 88.287642705000096, 26.803276159000088 ], [ 88.287295642000146, 26.802755563000179 ], [ 88.287036921000066, 26.80199651100008 ], [ 88.28688453900007, 26.801468128000149 ], [ 88.286723507000062, 26.800649885000038 ], [ 88.286596223000103, 26.799918166000158 ], [ 88.286500075000134, 26.79951206400013 ], [ 88.286418452000134, 26.79919157300008 ], [ 88.286385201000044, 26.798694611000084 ], [ 88.286472921000112, 26.797785895000036 ], [ 88.286571063000153, 26.79692599500012 ], [ 88.286732352000087, 26.796439466000098 ], [ 88.286874698000048, 26.796117353000181 ], [ 88.28740383650009, 26.795633340000101 ], [ 88.287586410000145, 26.795186174500095 ], [ 88.287551776666788, 26.794870901333411 ], [ 88.287226765500094, 26.794694156000109 ], [ 88.286828943000089, 26.79461949900006 ], [ 88.286012193, 26.794640503000021 ], [ 88.285419699000101, 26.794625541000116 ], [ 88.285041623000083, 26.794543281000148 ], [ 88.284679937000092, 26.794490750000065 ], [ 88.284518219000034, 26.795096483000091 ], [ 88.284523143000087, 26.79548901600015 ], [ 88.284663238000036, 26.797532106000087 ], [ 88.284685946000138, 26.79866987400008 ], [ 88.284712444000021, 26.799339205000127 ], [ 88.284855529000055, 26.800079993500091 ], [ 88.284969201000038, 26.80051776200003 ], [ 88.285127076000137, 26.801696449000122 ], [ 88.2851974820001, 26.802205644000065 ], [ 88.285271695500157, 26.8029628540001 ], [ 88.285186448000076, 26.803376182000104 ], [ 88.285022374000093, 26.803898392000146 ], [ 88.284921232000073, 26.804243109000158 ], [ 88.28461129100009, 26.804848202000041 ], [ 88.284414787500125, 26.805128533500099 ], [ 88.284030524000087, 26.80565744600003 ], [ 88.283824880000125, 26.805914580000167 ], [ 88.28370496250011, 26.806184322000103 ], [ 88.283621983000131, 26.806525558000093 ], [ 88.283666326000159, 26.807691664000121 ], [ 88.283765800333455, 26.808677888000098 ], [ 88.284257614000055, 26.808723795000166 ], [ 88.284649038000197, 26.808676184000046 ], [ 88.285028324000137, 26.808677453000062 ], [ 88.28548440400013, 26.808771036000167 ], [ 88.286076762000107, 26.808833050500102 ], [ 88.286616919000124, 26.808918182000173 ], [ 88.287359844000136, 26.808930549000042 ], [ 88.287693242000188, 26.80897574800014 ], [ 88.288113509500093, 26.809125096000152 ], [ 88.288489000000126, 26.809156097000052 ], [ 88.289580774000129, 26.809147586000147 ], [ 88.290412512000032, 26.809160230000128 ], [ 88.290719069000076, 26.80921737800006 ], [ 88.291248311, 26.80933307000004 ], [ 88.291827808500116, 26.809539776250112 ], [ 88.292070437000064, 26.80991996750015 ], [ 88.29210017000004, 26.810351825000044 ], [ 88.292104758000065, 26.810658397000186 ], [ 88.292026903000107, 26.81154879000005 ], [ 88.292027069000127, 26.812177942500103 ], [ 88.291977330500231, 26.812527664500085 ], [ 88.291947923000151, 26.812957911000201 ], [ 88.292028571000159, 26.81324712000006 ], [ 88.292070012000039, 26.814058228000203 ], [ 88.292115333000226, 26.815731487000182 ], [ 88.292138411000096, 26.816884245000171 ], [ 88.292349015000113, 26.817614543666778 ], [ 88.292607973000131, 26.818041296000072 ], [ 88.292703495000225, 26.818431361000105 ], [ 88.29266474400012, 26.818771133000151 ], [ 88.292553436000063, 26.819086565000138 ], [ 88.292221430000126, 26.819699392000128 ], [ 88.291953629000176, 26.820176395000072 ], [ 88.291514240000055, 26.821128839 ], [ 88.291129356000098, 26.821775272000114 ], [ 88.290325389500055, 26.82264048850007 ], [ 88.289262723000022, 26.823561686000129 ], [ 88.288539723000056, 26.82425929700003 ], [ 88.287757923499981, 26.82491120650019 ], [ 88.286902473000126, 26.82582931000017 ], [ 88.286387337000136, 26.826392118000197 ], [ 88.285906470999961, 26.827025109000079 ], [ 88.285383700000139, 26.827820506000077 ], [ 88.284764942000109, 26.828671218500165 ], [ 88.284376258000094, 26.829078063000122 ], [ 88.28408315100009, 26.8294014485001 ], [ 88.283704385000107, 26.829850861000114 ], [ 88.283424409000119, 26.830449703666858 ], [ 88.282997048000112, 26.831239025000041 ], [ 88.282789623, 26.831840977000109 ], [ 88.282351251500103, 26.832535584000027 ], [ 88.282029646000098, 26.832914405000107 ], [ 88.281404314000127, 26.833805101000085 ], [ 88.281173770500018, 26.834284057000101 ], [ 88.280912500000028, 26.834956908000084 ], [ 88.280747263000123, 26.83579178300015 ], [ 88.280671583500123, 26.836233236000083 ], [ 88.280738939000145, 26.836588216000056 ], [ 88.280816384000076, 26.836971512000062 ], [ 88.28081457321521, 26.83791092519796 ], [ 88.280664104239719, 26.83825864874969 ], [ 88.280238099250028, 26.838610218750091 ], [ 88.279675304000165, 26.838935601000035 ], [ 88.279192158000157, 26.839307388000154 ], [ 88.27840615999996, 26.840008202000053 ], [ 88.277998560500023, 26.840555323000114 ], [ 88.277755554000208, 26.840751959000041 ], [ 88.27744373600008, 26.840835618000124 ], [ 88.276759654500196, 26.841096353000115 ], [ 88.276418761750165, 26.841377256250198 ], [ 88.276424014000085, 26.842333205000134 ], [ 88.276440290000011, 26.843363386000195 ], [ 88.276532745000111, 26.844635033000163 ], [ 88.276627443800024, 26.845503736200026 ], [ 88.276907853500106, 26.845854996500073 ], [ 88.27714399500006, 26.846190467500119 ], [ 88.277398202500095, 26.846437282000156 ], [ 88.277846469000096, 26.846722179000015 ], [ 88.27813837700009, 26.84687397900014 ], [ 88.278800969000116, 26.847217568000058 ], [ 88.279272681000151, 26.847461167000052 ], [ 88.279525272000086, 26.847605291000075 ], [ 88.279846166000169, 26.84775445300016 ], [ 88.280234534000073, 26.847975913000099 ], [ 88.280804475500105, 26.848397023000125 ], [ 88.281085030250111, 26.848760971000129 ], [ 88.281106571000095, 26.849135247000099 ], [ 88.281047069000152, 26.84960520300017 ], [ 88.280886284000175, 26.850242083500152 ], [ 88.280760756250103, 26.851322424000145 ], [ 88.280646825000161, 26.85176104000011 ], [ 88.280563197000077, 26.852115316000113 ], [ 88.280302917000128, 26.85293122400012 ], [ 88.280069015000052, 26.853587093000119 ], [ 88.279578500500094, 26.854301380000067 ], [ 88.279304237000105, 26.854524979000093 ], [ 88.279021189000133, 26.854665691000012 ], [ 88.278473481000105, 26.854960989000109 ], [ 88.277574211000129, 26.855299597000059 ], [ 88.276699638000153, 26.855528981000209 ], [ 88.276109890400065, 26.855705587400113 ], [ 88.276153942000036, 26.856023130500017 ], [ 88.275922356000052, 26.85655364200008 ], [ 88.275577908000159, 26.857345568000145 ], [ 88.275246008000138, 26.858291328500105 ], [ 88.275145323000075, 26.858674080500066 ], [ 88.275194861000088, 26.859577794500055 ], [ 88.275343068000083, 26.859983960000044 ], [ 88.275547025000094, 26.860282394000045 ], [ 88.275815778000123, 26.860523939000135 ], [ 88.276159718000073, 26.86085795800015 ], [ 88.2765358810001, 26.861138659000193 ], [ 88.276846933000087, 26.861317446000154 ], [ 88.277161474500133, 26.861555199000108 ], [ 88.277448326000112, 26.861745932500124 ], [ 88.278051748500076, 26.862072525500146 ], [ 88.278496038000114, 26.862328447000049 ], [ 88.278858448750142, 26.862477871500111 ], [ 88.279403935750068, 26.862630631250116 ], [ 88.2798543225001, 26.862665157000109 ], [ 88.280176784500128, 26.862601199000057 ], [ 88.280831363000161, 26.862375722000142 ], [ 88.281239741000022, 26.862192441500031 ], [ 88.281741651000161, 26.862009214000192 ], [ 88.282067467000118, 26.861950777000065 ], [ 88.282418290500047, 26.861932098500073 ], [ 88.282800970250079, 26.862046432250096 ], [ 88.283125398000166, 26.862395168500107 ], [ 88.283258413000155, 26.862785096000085 ], [ 88.283313969000048, 26.863120345000024 ], [ 88.283370349500132, 26.863677036250099 ], [ 88.283471612000113, 26.864049843000014 ], [ 88.283514980000149, 26.864686859000141 ], [ 88.283564788, 26.865009794000127 ], [ 88.283661159000175, 26.865338697000073 ], [ 88.283802849000168, 26.865765331000112 ], [ 88.284021734500115, 26.866232435500081 ], [ 88.284134662, 26.866543310000178 ], [ 88.284233331000081, 26.866898944000116 ], [ 88.284332463500164, 26.867438077833427 ], [ 88.284429012000018, 26.86813823800016 ], [ 88.284511306500121, 26.868457656750099 ], [ 88.284592567500184, 26.869126589000135 ], [ 88.284707092000119, 26.869554394500138 ], [ 88.284934995400093, 26.869982656 ], [ 88.285300717000112, 26.869825892000087 ], [ 88.285739848000119, 26.869608544000133 ], [ 88.286142612333379, 26.869438036000147 ] ] ] ] } },
{ "type": "Feature", "properties": { "pc11_s_id": "19", "pc11_d_id": "327", "pc11_sd_id": "02161", "pc11_tv_id": "306457", "tv_name": "Gidda Pahar", "mdds_og": 0, "P_Area": "Y" }, "geometry": { "type": "MultiPolygon", "coordinates": [ [ [ [ 88.299125747000119, 26.872407060000047 ], [ 88.298668776000142, 26.872514026000104 ], [ 88.298327332000042, 26.872532997000075 ], [ 88.297859338000052, 26.872562350000106 ], [ 88.297404715000098, 26.872554101000045 ], [ 88.29703360400012, 26.872432723000127 ], [ 88.296562689000055, 26.872266047500059 ], [ 88.296130215000062, 26.872130280000061 ], [ 88.295706802000026, 26.871942878 ], [ 88.295360921000096, 26.871716206333417 ], [ 88.295037013000027, 26.871392623000045 ], [ 88.294551534, 26.870834721000069 ], [ 88.294222823000084, 26.870375729000017 ], [ 88.294030123000127, 26.869947002000071 ], [ 88.293792792000019, 26.869342692000075 ], [ 88.293434820000073, 26.86865837800012 ], [ 88.293011886000073, 26.868774500000047 ], [ 88.292525329000142, 26.868902463000065 ], [ 88.29216119250016, 26.868995427500074 ], [ 88.291778041000128, 26.869084916000062 ], [ 88.290954477000099, 26.869178984000119 ], [ 88.29053805300002, 26.869229664000049 ], [ 88.290120985000058, 26.869335742000121 ], [ 88.289811554500091, 26.869365373000086 ], [ 88.289342530500178, 26.869453767750183 ], [ 88.288896494000085, 26.869482596000104 ], [ 88.288560454, 26.869626347000096 ], [ 88.28828510150008, 26.869697396000113 ], [ 88.287851401000125, 26.869714294000179 ], [ 88.287108862166775, 26.869706105166745 ], [ 88.286555820000132, 26.869480074000073 ], [ 88.286142612333379, 26.869438036000147 ], [ 88.285739848000119, 26.869608544000133 ], [ 88.285300717000112, 26.869825892000087 ], [ 88.284934995400093, 26.869982656 ], [ 88.285114894500055, 26.870326532000032 ], [ 88.285337944000091, 26.870812168000068 ], [ 88.285580270750131, 26.871207067500102 ], [ 88.285938396500072, 26.87154714200004 ], [ 88.286140699000072, 26.871872855000078 ], [ 88.286409054500112, 26.872445507500075 ], [ 88.286584031500027, 26.872866387000037 ], [ 88.286759927000062, 26.873092988000046 ], [ 88.286891335000092, 26.873391739500029 ], [ 88.28698173350007, 26.873743879000077 ], [ 88.287025260600032, 26.874137397800023 ], [ 88.28714162300011, 26.874438372000075 ], [ 88.287167442000026, 26.875059767000064 ], [ 88.287202278250092, 26.875664788750097 ], [ 88.288055477000043, 26.875792599000036 ], [ 88.288591641, 26.875799134000044 ], [ 88.289363166000072, 26.875777952000067 ], [ 88.289710447000118, 26.87575233900008 ], [ 88.290103578500094, 26.87562656850011 ], [ 88.290468779000065, 26.875519940000125 ], [ 88.290990181500078, 26.87552274800009 ], [ 88.291495561000019, 26.875651934000032 ], [ 88.292057378000052, 26.875842412000072 ], [ 88.292407834000102, 26.875985925000045 ], [ 88.29273296000008, 26.876214116 ], [ 88.293041064000093, 26.876481229 ], [ 88.29338493900012, 26.876848269000075 ], [ 88.293914014000109, 26.877236454500085 ], [ 88.294309898000094, 26.877434717000014 ], [ 88.29469282900007, 26.877667720000019 ], [ 88.295271602000085, 26.877940557000034 ], [ 88.295880734000036, 26.878297146000051 ], [ 88.296245083000073, 26.878495061 ], [ 88.296648456000042, 26.878682456000046 ], [ 88.297317901000099, 26.879145238000056 ], [ 88.297851205000086, 26.879515495000049 ], [ 88.298365409333428, 26.879732690833368 ], [ 88.298337227500113, 26.879279388000054 ], [ 88.29817079350002, 26.878857620500018 ], [ 88.298029725000021, 26.878441166000066 ], [ 88.297902790000094, 26.877943066000064 ], [ 88.297837630500069, 26.877293748500119 ], [ 88.29787645100005, 26.876969120000037 ], [ 88.297966255000105, 26.876616214000059 ], [ 88.298124410000042, 26.87607078800005 ], [ 88.298309143000054, 26.875690040000077 ], [ 88.298484693, 26.875187030000024 ], [ 88.298607717000067, 26.874408466 ], [ 88.298766287000035, 26.873806304 ], [ 88.298883423000049, 26.873432869000013 ], [ 88.299217937333438, 26.872767910500105 ], [ 88.299125747000119, 26.872407060000047 ] ] ] ] } }
]
}
